{"type": "FeatureCollection", "features": [ {"type": "Feature", "properties": {"norad_id": 60453, "name": "LEGION 4", "group": "resource", "lat": -24.803498614976835, "lon": 42.56836879353215, "alt_km": 516.0462875212306, "timestamp": "2025-12-07T11:27:49.645348+00:00", "meta": {"OBJECT_NAME": "LEGION 4", "OBJECT_ID": "2024-146B", "EPOCH": "2025-12-06T18:13:27.566112", "MEAN_MOTION": 15.15731499, "ECCENTRICITY": 0.00099106, "INCLINATION": 45.0391, "RA_OF_ASC_NODE": 73.9235, "ARG_OF_PERICENTER": 279.811, "MEAN_ANOMALY": 80.165, "EPHEMERIS_TYPE": 0, "CLASSIFICATION_TYPE": "U", "NORAD_CAT_ID": 60453, "ELEMENT_SET_NO": 999, "REV_AT_EPOCH": 7167, "BSTAR": 0.00048560368, "MEAN_MOTION_DOT": 9.171e-05, "MEAN_MOTION_DDOT": 0}, "tle": {"line1": "1 60453U 24146B   25340.75934683  .00009171  00000+0  48560-3 0  9997", "line2": "2 60453  45.0391  73.9235 0009910 279.8110  80.1650 15.15731499 71674"}}, "geometry": {"type": "Point", "coordinates": [42.56836879353215, -24.803498614976835]}}, {"type": "Feature", "properties": {"norad_id": 60989, "name": "SENTINEL-2C", "group": "resource", "lat": -80.38717987058898, "lon": 116.93627382135531, "alt_km": 797.1726587024004, "timestamp": "2025-12-07T11:27:49.645358+00:00", "meta": {"OBJECT_NAME": "SENTINEL-2C", "OBJECT_ID": "2024-157A", "EPOCH": "2025-12-06T22:26:13.184448", "MEAN_MOTION": 14.30813962, "ECCENTRICITY": 0.00011615, "INCLINATION": 98.5687, "RA_OF_ASC_NODE": 53.5007, "ARG_OF_PERICENTER": 98.9112, "MEAN_ANOMALY": 261.2203, "EPHEMERIS_TYPE": 0, "CLASSIFICATION_TYPE": "U", "NORAD_CAT_ID": 60989, "ELEMENT_SET_NO": 999, "REV_AT_EPOCH": 6549, "BSTAR": 0.00013396443, "MEAN_MOTION_DOT": 3.08e-06, "MEAN_MOTION_DDOT": 0}, "tle": {"line1": "1 60989U 24157A   25340.93487482  .00000308  00000+0  13396-3 0  9995", "line2": "2 60989  98.5687  53.5007 0001161  98.9112 261.2203 14.30813962 65493"}}, "geometry": {"type": "Point", "coordinates": [116.93627382135531, -80.38717987058898]}}, {"type": "Feature", "properties": {"norad_id": 61735, "name": "IONOSFERA-M 1", "group": "resource", "lat": -25.83379060319907, "lon": -144.36215186772026, "alt_km": 821.277449110964, "timestamp": "2025-12-07T11:27:49.645369+00:00", "meta": {"OBJECT_NAME": "IONOSFERA-M 1", "OBJECT_ID": "2024-199A", "EPOCH": "2025-12-06T22:05:00.553056", "MEAN_MOTION": 14.22712035, "ECCENTRICITY": 0.00012388, "INCLINATION": 98.7415, "RA_OF_ASC_NODE": 210.8128, "ARG_OF_PERICENTER": 30.2535, "MEAN_ANOMALY": 329.8714, "EPHEMERIS_TYPE": 0, "CLASSIFICATION_TYPE": "U", "NORAD_CAT_ID": 61735, "ELEMENT_SET_NO": 999, "REV_AT_EPOCH": 10036, "BSTAR": 8.7467578e-05, "MEAN_MOTION_DOT": 1.52e-06, "MEAN_MOTION_DDOT": 0}, "tle": {"line1": "1 61735U 24199A   25340.92014529  .00000152  00000+0  87468-4 0  9997", "line2": "2 61735  98.7415 210.8128 0001238  30.2535 329.8714 14.22712035100363"}}, "geometry": {"type": "Point", "coordinates": [-144.36215186772026, -25.83379060319907]}}, {"type": "Feature", "properties": {"norad_id": 61736, "name": "IONOSFERA-M 2", "group": "resource", "lat": 23.014223579073697, "lon": 35.02562844869901, "alt_km": 814.8974399486597, "timestamp": "2025-12-07T11:27:49.645379+00:00", "meta": {"OBJECT_NAME": "IONOSFERA-M 2", "OBJECT_ID": "2024-199B", "EPOCH": "2025-12-06T22:54:54.655200", "MEAN_MOTION": 14.22714186, "ECCENTRICITY": 0.000149, "INCLINATION": 98.7413, "RA_OF_ASC_NODE": 210.7598, "ARG_OF_PERICENTER": 117.6144, "MEAN_ANOMALY": 242.5185, "EPHEMERIS_TYPE": 0, "CLASSIFICATION_TYPE": "U", "NORAD_CAT_ID": 61736, "ELEMENT_SET_NO": 999, "REV_AT_EPOCH": 10349, "BSTAR": 8.7900097e-05, "MEAN_MOTION_DOT": 1.53e-06, "MEAN_MOTION_DDOT": 0}, "tle": {"line1": "1 61736U 24199B   25340.95479925  .00000153  00000+0  87900-4 0  9998", "line2": "2 61736  98.7413 210.7598 0001490 117.6144 242.5185 14.22714186103497"}}, "geometry": {"type": "Point", "coordinates": [35.02562844869901, 23.014223579073697]}}, {"type": "Feature", "properties": {"norad_id": 63772, "name": "BIOMASS", "group": "resource", "lat": -40.76211039300652, "lon": -20.463185253643793, "alt_km": 676.31937024953, "timestamp": "2025-12-07T11:27:49.645390+00:00", "meta": {"OBJECT_NAME": "BIOMASS", "OBJECT_ID": "2025-090A", "EPOCH": "2025-12-06T11:32:58.794720", "MEAN_MOTION": 14.67526401, "ECCENTRICITY": 0.00011513, "INCLINATION": 98.0712, "RA_OF_ASC_NODE": 165.5814, "ARG_OF_PERICENTER": 62.7963, "MEAN_ANOMALY": 297.3359, "EPHEMERIS_TYPE": 0, "CLASSIFICATION_TYPE": "U", "NORAD_CAT_ID": 63772, "ELEMENT_SET_NO": 999, "REV_AT_EPOCH": 3242, "BSTAR": -0.00051875312, "MEAN_MOTION_DOT": -2.987e-05, "MEAN_MOTION_DDOT": 0}, "tle": {"line1": "1 63772U 25090A   25340.48123605 -.00002987  00000+0 -51875-3 0  9990", "line2": "2 63772  98.0712 165.5814 0001151  62.7963 297.3359 14.67526401 32420"}}, "geometry": {"type": "Point", "coordinates": [-20.463185253643793, -40.76211039300652]}}, {"type": "Feature", "properties": {"norad_id": 64694, "name": "GOSAT-GW (IBUKI GW)", "group": "resource", "lat": 68.7228223726627, "lon": -104.20293788975998, "alt_km": 661.1440431655901, "timestamp": "2025-12-07T11:27:49.645400+00:00", "meta": {"OBJECT_NAME": "GOSAT-GW (IBUKI GW)", "OBJECT_ID": "2025-141A", "EPOCH": "2025-12-06T22:03:15.010272", "MEAN_MOTION": 14.67557661, "ECCENTRICITY": 0.00015103, "INCLINATION": 98.0423, "RA_OF_ASC_NODE": 276.5373, "ARG_OF_PERICENTER": 83.2673, "MEAN_ANOMALY": 276.8703, "EPHEMERIS_TYPE": 0, "CLASSIFICATION_TYPE": "U", "NORAD_CAT_ID": 64694, "ELEMENT_SET_NO": 999, "REV_AT_EPOCH": 2364, "BSTAR": 0.00036117028, "MEAN_MOTION_DOT": 2.002e-05, "MEAN_MOTION_DDOT": 0}, "tle": {"line1": "1 64694U 25141A   25340.91892373  .00002002  00000+0  36117-3 0  9992", "line2": "2 64694  98.0423 276.5373 0001510  83.2673 276.8703 14.67557661 23642"}}, "geometry": {"type": "Point", "coordinates": [-104.20293788975998, 68.7228223726627]}}, {"type": "Feature", "properties": {"norad_id": 64876, "name": "IONOSFERA-M 3", "group": "resource", "lat": -44.49826197657922, "lon": 114.96372799063141, "alt_km": 828.717766526277, "timestamp": "2025-12-07T11:27:49.645411+00:00", "meta": {"OBJECT_NAME": "IONOSFERA-M 3", "OBJECT_ID": "2025-155A", "EPOCH": "2025-12-06T22:34:57.713664", "MEAN_MOTION": 14.21438785, "ECCENTRICITY": 0.00023482, "INCLINATION": 98.5776, "RA_OF_ASC_NODE": 302.9714, "ARG_OF_PERICENTER": 69.1102, "MEAN_ANOMALY": 291.0327, "EPHEMERIS_TYPE": 0, "CLASSIFICATION_TYPE": "U", "NORAD_CAT_ID": 64876, "ELEMENT_SET_NO": 999, "REV_AT_EPOCH": 1909, "BSTAR": 9.320005e-05, "MEAN_MOTION_DOT": 1.61e-06, "MEAN_MOTION_DDOT": 0}, "tle": {"line1": "1 64876U 25155A   25340.94094576  .00000161  00000+0  93200-4 0  9992", "line2": "2 64876  98.5776 302.9714 0002348  69.1102 291.0327 14.21438785 19093"}}, "geometry": {"type": "Point", "coordinates": [114.96372799063141, -44.49826197657922]}}, {"type": "Feature", "properties": {"norad_id": 64877, "name": "IONOSFERA-M 4", "group": "resource", "lat": 44.94044107572716, "lon": -65.25015042923688, "alt_km": 815.4598746088132, "timestamp": "2025-12-07T11:27:49.645422+00:00", "meta": {"OBJECT_NAME": "IONOSFERA-M 4", "OBJECT_ID": "2025-155B", "EPOCH": "2025-12-06T21:44:06.006048", "MEAN_MOTION": 14.21439866, "ECCENTRICITY": 0.00017088, "INCLINATION": 98.5774, "RA_OF_ASC_NODE": 302.8567, "ARG_OF_PERICENTER": 69.4589, "MEAN_ANOMALY": 290.6772, "EPHEMERIS_TYPE": 0, "CLASSIFICATION_TYPE": "U", "NORAD_CAT_ID": 64877, "ELEMENT_SET_NO": 999, "REV_AT_EPOCH": 1908, "BSTAR": 9.9442362e-05, "MEAN_MOTION_DOT": 1.75e-06, "MEAN_MOTION_DDOT": 0}, "tle": {"line1": "1 64877U 25155B   25340.90562507  .00000175  00000+0  99442-4 0  9992", "line2": "2 64877  98.5774 302.8567 0001708  69.4589 290.6772 14.21439866 19087"}}, "geometry": {"type": "Point", "coordinates": [-65.25015042923688, 44.94044107572716]}}, {"type": "Feature", "properties": {"norad_id": 64899, "name": "MICROCARB", "group": "resource", "lat": -36.54101575872616, "lon": 62.89168647616409, "alt_km": 672.1286611686692, "timestamp": "2025-12-07T11:27:49.645432+00:00", "meta": {"OBJECT_NAME": "MICROCARB", "OBJECT_ID": "2025-156A", "EPOCH": "2025-12-06T22:34:51.325248", "MEAN_MOTION": 14.72042372, "ECCENTRICITY": 0.0016761, "INCLINATION": 98.0029, "RA_OF_ASC_NODE": 56.3791, "ARG_OF_PERICENTER": 162.6689, "MEAN_ANOMALY": 197.5093, "EPHEMERIS_TYPE": 0, "CLASSIFICATION_TYPE": "U", "NORAD_CAT_ID": 64899, "ELEMENT_SET_NO": 999, "REV_AT_EPOCH": 1968, "BSTAR": 0.00022760206, "MEAN_MOTION_DOT": 1.383e-05, "MEAN_MOTION_DDOT": 0}, "tle": {"line1": "1 64899U 25156A   25340.94087182  .00001383  00000+0  22760-3 0  9992", "line2": "2 64899  98.0029  56.3791 0016761 162.6689 197.5093 14.72042372 19686"}}, "geometry": {"type": "Point", "coordinates": [62.89168647616409, -36.54101575872616]}}, {"type": "Feature", "properties": {"norad_id": 64900, "name": "CO3D 3", "group": "resource", "lat": 5.76917417894751, "lon": -121.32339642836745, "alt_km": 507.08155380770495, "timestamp": "2025-12-07T11:27:49.645442+00:00", "meta": {"OBJECT_NAME": "CO3D 3", "OBJECT_ID": "2025-156B", "EPOCH": "2025-12-06T22:03:45.810144", "MEAN_MOTION": 15.20202224, "ECCENTRICITY": 0.00013138, "INCLINATION": 97.4345, "RA_OF_ASC_NODE": 57.3703, "ARG_OF_PERICENTER": 113.5876, "MEAN_ANOMALY": 246.5497, "EPHEMERIS_TYPE": 0, "CLASSIFICATION_TYPE": "U", "NORAD_CAT_ID": 64900, "ELEMENT_SET_NO": 999, "REV_AT_EPOCH": 2032, "BSTAR": 0.00047306705, "MEAN_MOTION_DOT": 0.00010187, "MEAN_MOTION_DDOT": 0}, "tle": {"line1": "1 64900U 25156B   25340.91928021  .00010187  00000+0  47307-3 0  9994", "line2": "2 64900  97.4345  57.3703 0001313 113.5876 246.5497 15.20202224 20321"}}, "geometry": {"type": "Point", "coordinates": [-121.32339642836745, 5.76917417894751]}}]}